{"type": "FeatureCollection", "features": [ {"type": "Feature", "properties": {"norad_id": 35744, "name": "IRIDIUM 33 DEB", "group": "iridium-33-debris", "lat": -32.440305535211465, "lon": 146.19282040349177, "alt_km": 651.8767183964164, "timestamp": "2025-12-16T05:49:09.598985+00:00", "meta": {"OBJECT_NAME": "IRIDIUM 33 DEB", "OBJECT_ID": "1997-051RX", "EPOCH": "2025-12-15T09:15:59.013216", "MEAN_MOTION": 14.71036318, "ECCENTRICITY": 0.00204503, "INCLINATION": 86.3289, "RA_OF_ASC_NODE": 324.2409, "ARG_OF_PERICENTER": 182.37, "MEAN_ANOMALY": 177.7423, "EPHEMERIS_TYPE": 0, "CLASSIFICATION_TYPE": "U", "NORAD_CAT_ID": 35744, "ELEMENT_SET_NO": 999, "REV_AT_EPOCH": 87370, "BSTAR": 0.00069819021, "MEAN_MOTION_DOT": 4.322e-05, "MEAN_MOTION_DDOT": 0}, "tle": {"line1": "1 35744U 97051RX  25349.38609969  .00004322  00000+0  69819-3 0  9994", "line2": "2 35744  86.3289 324.2409 0020450 182.3700 177.7423 14.71036318873707"}}, "geometry": {"type": "Point", "coordinates": [146.19282040349177, -32.440305535211465]}}, {"type": "Feature", "properties": {"norad_id": 35797, "name": "IRIDIUM 33 DEB", "group": "iridium-33-debris", "lat": 86.14690097076961, "lon": 40.42346066685976, "alt_km": 606.2421348380858, "timestamp": "2025-12-16T05:49:09.599007+00:00", "meta": {"OBJECT_NAME": "IRIDIUM 33 DEB", "OBJECT_ID": "1997-051SF", "EPOCH": "2025-12-12T05:51:50.415264", "MEAN_MOTION": 14.82743783, "ECCENTRICITY": 0.00133704, "INCLINATION": 86.3362, "RA_OF_ASC_NODE": 330.2007, "ARG_OF_PERICENTER": 149.5686, "MEAN_ANOMALY": 210.6315, "EPHEMERIS_TYPE": 0, "CLASSIFICATION_TYPE": "U", "NORAD_CAT_ID": 35797, "ELEMENT_SET_NO": 999, "REV_AT_EPOCH": 87333, "BSTAR": 0.0026694194, "MEAN_MOTION_DOT": 0.00021655, "MEAN_MOTION_DDOT": 0}, "tle": {"line1": "1 35797U 97051SF  25346.24433351  .00021655  00000+0  26694-2 0  9995", "line2": "2 35797  86.3362 330.2007 0013370 149.5686 210.6315 14.82743783873338"}}, "geometry": {"type": "Point", "coordinates": [40.42346066685976, 86.14690097076961]}}, {"type": "Feature", "properties": {"norad_id": 35806, "name": "IRIDIUM 33 DEB", "group": "iridium-33-debris", "lat": 73.7494814025641, "lon": 31.75781317422955, "alt_km": 683.458581304666, "timestamp": "2025-12-16T05:49:09.599025+00:00", "meta": {"OBJECT_NAME": "IRIDIUM 33 DEB", "OBJECT_ID": "1997-051SQ", "EPOCH": "2025-12-10T20:56:47.284800", "MEAN_MOTION": 14.5731398, "ECCENTRICITY": 0.0016091, "INCLINATION": 86.344, "RA_OF_ASC_NODE": 21.4504, "ARG_OF_PERICENTER": 81.1516, "MEAN_ANOMALY": 279.1514, "EPHEMERIS_TYPE": 0, "CLASSIFICATION_TYPE": "U", "NORAD_CAT_ID": 35806, "ELEMENT_SET_NO": 999, "REV_AT_EPOCH": 86297, "BSTAR": 0.0016785, "MEAN_MOTION_DOT": 7.632e-05, "MEAN_MOTION_DDOT": 0}, "tle": {"line1": "1 35806U 97051SQ  25344.87276950  .00007632  00000+0  16785-2 0  9992", "line2": "2 35806  86.3440  21.4504 0016091  81.1516 279.1514 14.57313980862976"}}, "geometry": {"type": "Point", "coordinates": [31.75781317422955, 73.7494814025641]}}, {"type": "Feature", "properties": {"norad_id": 35809, "name": "IRIDIUM 33 DEB", "group": "iridium-33-debris", "lat": -49.58991008028869, "lon": -30.56964198502412, "alt_km": 648.1541541223996, "timestamp": "2025-12-16T05:49:09.599041+00:00", "meta": {"OBJECT_NAME": "IRIDIUM 33 DEB", "OBJECT_ID": "1997-051ST", "EPOCH": "2025-12-10T16:35:56.421600", "MEAN_MOTION": 14.75629145, "ECCENTRICITY": 0.00097103, "INCLINATION": 86.329, "RA_OF_ASC_NODE": 336.2813, "ARG_OF_PERICENTER": 251.0565, "MEAN_ANOMALY": 108.9602, "EPHEMERIS_TYPE": 0, "CLASSIFICATION_TYPE": "U", "NORAD_CAT_ID": 35809, "ELEMENT_SET_NO": 999, "REV_AT_EPOCH": 86777, "BSTAR": 0.0026432017, "MEAN_MOTION_DOT": 0.00018102, "MEAN_MOTION_DDOT": 0}, "tle": {"line1": "1 35809U 97051ST  25344.69162525  .00018102  00000+0  26432-2 0  9991", "line2": "2 35809  86.3290 336.2813 0009710 251.0565 108.9602 14.75629145867777"}}, "geometry": {"type": "Point", "coordinates": [-30.56964198502412, -49.58991008028869]}}, {"type": "Feature", "properties": {"norad_id": 35846, "name": "IRIDIUM 33 DEB", "group": "iridium-33-debris", "lat": 40.70453387482575, "lon": 60.472638434846125, "alt_km": 751.1399276599777, "timestamp": "2025-12-16T05:49:09.599058+00:00", "meta": {"OBJECT_NAME": "IRIDIUM 33 DEB", "OBJECT_ID": "1997-051SW", "EPOCH": "2025-12-13T22:42:58.027680", "MEAN_MOTION": 14.43166074, "ECCENTRICITY": 0.00189778, "INCLINATION": 86.3748, "RA_OF_ASC_NODE": 58.3258, "ARG_OF_PERICENTER": 166.0798, "MEAN_ANOMALY": 194.093, "EPHEMERIS_TYPE": 0, "CLASSIFICATION_TYPE": "U", "NORAD_CAT_ID": 35846, "ELEMENT_SET_NO": 999, "REV_AT_EPOCH": 71346, "BSTAR": 0.00070076496, "MEAN_MOTION_DOT": 2.378e-05, "MEAN_MOTION_DDOT": 0}, "tle": {"line1": "1 35846U 97051SW  25347.94650495  .00002378  00000+0  70076-3 0  9993", "line2": "2 35846  86.3748  58.3258 0018977 166.0798 194.0930 14.43166074713467"}}, "geometry": {"type": "Point", "coordinates": [60.472638434846125, 40.70453387482575]}}, {"type": "Feature", "properties": {"norad_id": 35848, "name": "IRIDIUM 33 DEB", "group": "iridium-33-debris", "lat": -60.27604577853015, "lon": 8.200931266275937, "alt_km": 643.8485771383021, "timestamp": "2025-12-16T05:49:09.599076+00:00", "meta": {"OBJECT_NAME": "IRIDIUM 33 DEB", "OBJECT_ID": "1997-051SY", "EPOCH": "2025-12-14T19:59:10.774176", "MEAN_MOTION": 14.78689372, "ECCENTRICITY": 0.00081927, "INCLINATION": 86.3904, "RA_OF_ASC_NODE": 15.1825, "ARG_OF_PERICENTER": 180.6002, "MEAN_ANOMALY": 179.521, "EPHEMERIS_TYPE": 0, "CLASSIFICATION_TYPE": "U", "NORAD_CAT_ID": 35848, "ELEMENT_SET_NO": 999, "REV_AT_EPOCH": 66721, "BSTAR": 0.0010179652, "MEAN_MOTION_DOT": 7.493e-05, "MEAN_MOTION_DDOT": 0}, "tle": {"line1": "1 35848U 97051SY  25348.83276359  .00007493  00000+0  10180-2 0  9999", "line2": "2 35848  86.3904  15.1825 0008192 180.6002 179.5210 14.78689372667211"}}, "geometry": {"type": "Point", "coordinates": [8.200931266275937, -60.27604577853015]}}, {"type": "Feature", "properties": {"norad_id": 35850, "name": "IRIDIUM 33 DEB", "group": "iridium-33-debris", "lat": -85.39490479605274, "lon": -144.91712113972184, "alt_km": 640.8530563610702, "timestamp": "2025-12-16T05:49:09.599095+00:00", "meta": {"OBJECT_NAME": "IRIDIUM 33 DEB", "OBJECT_ID": "1997-051TA", "EPOCH": "2025-12-15T17:14:52.406304", "MEAN_MOTION": 14.78892383, "ECCENTRICITY": 0.00096156, "INCLINATION": 86.3495, "RA_OF_ASC_NODE": 342.8914, "ARG_OF_PERICENTER": 173.8834, "MEAN_ANOMALY": 186.2505, "EPHEMERIS_TYPE": 0, "CLASSIFICATION_TYPE": "U", "NORAD_CAT_ID": 35850, "ELEMENT_SET_NO": 999, "REV_AT_EPOCH": 71401, "BSTAR": 0.0010045188, "MEAN_MOTION_DOT": 7.431e-05, "MEAN_MOTION_DDOT": 0}, "tle": {"line1": "1 35850U 97051TA  25349.71866211  .00007431  00000+0  10045-2 0  9994", "line2": "2 35850  86.3495 342.8914 0009615 173.8834 186.2505 14.78892383714017"}}, "geometry": {"type": "Point", "coordinates": [-144.91712113972184, -85.39490479605274]}}, {"type": "Feature", "properties": {"norad_id": 35915, "name": "IRIDIUM 33 DEB", "group": "iridium-33-debris", "lat": -51.09987802535059, "lon": 165.90244137283116, "alt_km": 629.6071751119107, "timestamp": "2025-12-16T05:49:09.599112+00:00", "meta": {"OBJECT_NAME": "IRIDIUM 33 DEB", "OBJECT_ID": "1997-051TY", "EPOCH": "2025-12-15T17:25:35.441760", "MEAN_MOTION": 14.80816607, "ECCENTRICITY": 0.00112544, "INCLINATION": 86.3436, "RA_OF_ASC_NODE": 341.593, "ARG_OF_PERICENTER": 174.6839, "MEAN_ANOMALY": 185.4504, "EPHEMERIS_TYPE": 0, "CLASSIFICATION_TYPE": "U", "NORAD_CAT_ID": 35915, "ELEMENT_SET_NO": 999, "REV_AT_EPOCH": 8130, "BSTAR": 0.0011378054, "MEAN_MOTION_DOT": 8.81e-05, "MEAN_MOTION_DDOT": 0}, "tle": {"line1": "1 35915U 97051TY  25349.72610465  .00008810  00000+0  11378-2 0  9997", "line2": "2 35915  86.3436 341.5930 0011254 174.6839 185.4504 14.80816607 81301"}}, "geometry": {"type": "Point", "coordinates": [165.90244137283116, -51.09987802535059]}}, {"type": "Feature", "properties": {"norad_id": 35918, "name": "IRIDIUM 33 DEB", "group": "iridium-33-debris", "lat": 13.900692389707027, "lon": 75.20472043410501, "alt_km": 738.3296806363414, "timestamp": "2025-12-16T05:49:09.599128+00:00", "meta": {"OBJECT_NAME": "IRIDIUM 33 DEB", "OBJECT_ID": "1997-051UB", "EPOCH": "2025-12-13T00:32:30.278688", "MEAN_MOTION": 14.51250424, "ECCENTRICITY": 0.00275912, "INCLINATION": 86.401, "RA_OF_ASC_NODE": 75.694, "ARG_OF_PERICENTER": 168.7296, "MEAN_ANOMALY": 313.6735, "EPHEMERIS_TYPE": 0, "CLASSIFICATION_TYPE": "U", "NORAD_CAT_ID": 35918, "ELEMENT_SET_NO": 999, "REV_AT_EPOCH": 85211, "BSTAR": 0.0017263949, "MEAN_MOTION_DOT": 6.917e-05, "MEAN_MOTION_DDOT": 0}, "tle": {"line1": "1 35918U 97051UB  25347.02257267  .00006917  00000+0  17264-2 0  9994", "line2": "2 35918  86.4010  75.6940 0027591 168.7296 313.6735 14.51250424852114"}}, "geometry": {"type": "Point", "coordinates": [75.20472043410501, 13.900692389707027]}}, {"type": "Feature", "properties": {"norad_id": 35929, "name": "IRIDIUM 33 DEB", "group": "iridium-33-debris", "lat": 50.71341254695209, "lon": -44.53339065379124, "alt_km": 543.0487109016676, "timestamp": "2025-12-16T05:49:09.599144+00:00", "meta": {"OBJECT_NAME": "IRIDIUM 33 DEB", "OBJECT_ID": "1997-051UN", "EPOCH": "2025-12-15T15:12:36.400032", "MEAN_MOTION": 15.02615499, "ECCENTRICITY": 0.00177406, "INCLINATION": 86.3319, "RA_OF_ASC_NODE": 311.2578, "ARG_OF_PERICENTER": 28.1531, "MEAN_ANOMALY": 332.0658, "EPHEMERIS_TYPE": 0, "CLASSIFICATION_TYPE": "U", "NORAD_CAT_ID": 35929, "ELEMENT_SET_NO": 999, "REV_AT_EPOCH": 87823, "BSTAR": 0.0017233436, "MEAN_MOTION_DOT": 0.00023096, "MEAN_MOTION_DDOT": 0}, "tle": {"line1": "1 35929U 97051UN  25349.63375463  .00023096  00000+0  17233-2 0  9997", "line2": "2 35929  86.3319 311.2578 0017740  28.1531 332.0658 15.02615499878233"}}, "geometry": {"type": "Point", "coordinates": [-44.53339065379124, 50.71341254695209]}}]}